[{"OBJECT_NAME":"TEMPSAT 1","OBJECT_ID":"1965-065E","EPOCH":"2026-03-09T23:04:19.834752","MEAN_MOTION":13.33589233,"ECCENTRICITY":0.00702466,"INCLINATION":89.9938,"RA_OF_ASC_NODE":212.5862,"ARG_OF_PERICENTER":165.9273,"MEAN_ANOMALY":317.9391,"EPHEMERIS_TYPE":0,"CLASSIFICATION_TYPE":"U","NORAD_CAT_ID":1512,"ELEMENT_SET_NO":999,"REV_AT_EPOCH":94682,"BSTAR":8.3668831e-5,"MEAN_MOTION_DOT":5.1e-7,"MEAN_MOTION_DDOT":0},{"OBJECT_NAME":"MUNIN","OBJECT_ID":"2000-075C","EPOCH":"2026-03-09T21:09:47.361024","MEAN_MOTION":13.04809546,"ECCENTRICITY":0.07110578,"INCLINATION":95.4004,"RA_OF_ASC_NODE":41.3014,"ARG_OF_PERICENTER":147.8146,"MEAN_ANOMALY":216.8511,"EPHEMERIS_TYPE":0,"CLASSIFICATION_TYPE":"U","NORAD_CAT_ID":26621,"ELEMENT_SET_NO":999,"REV_AT_EPOCH":20385,"BSTAR":-0.00041568441,"MEAN_MOTION_DOT":-4.68e-6,"MEAN_MOTION_DDOT":0}]
